HST                     
1 20580U 90037B   26158.29828938  .00006010  00000+0  18954-3 0  9991
2 20580  28.4712 148.1547 0001937  44.7656 315.3096 15.30642118787058
POLAR                   
1 23802U 96013A   26157.25380788  .00000121  00000+0  00000+0 0  9998
2 23802  79.8415 227.1806 6459687 209.4581  89.1646  1.29846142144719
SWAS                    
1 25560U 98071A   26158.01018089  .00004921  00000+0  31198-3 0  9992
2 25560  69.8962 253.7623 0008921 269.2020  90.8122 15.09559613495733
CXO                     
1 25867U 99040B   26158.79821798  .00000708  00000+0  00000+0 0  9996
2 25867  55.9928 116.9568 7854200 310.2595   0.2905  0.37800379 17286
XMM-NEWTON              
1 25989U 99066A   26157.37875651  .00000096  00000+0  00000+0 0  9999
2 25989  64.5482 283.1267 4678331  65.0797   0.1118  0.50125302 22956
TERRA                   
1 25994U 99068A   26158.01926653  .00000404  00000+0  91295-4 0  9992
2 25994  97.9460 207.9683 0000883 241.3027 180.8680 14.61095053408129
CLUSTER II-FM7 (SAMBA)  
1 26410U 00041A   26159.21452506  .00004289  00000+0  00000+0 0  9997
2 26410 149.9021  49.0985 9044304 266.1693 359.9197  0.44821039 20278
CLUSTER II-FM8 (TANGO)  
1 26464U 00045B   26157.18212104  .00004544  00000+0  00000+0 0  9996
2 26464 150.1407  49.6985 9046201 266.6195   3.2041  0.44406384 20263
ODIN                    
1 26702U 01007A   26157.66870289  .00164905  00000+0  12201-2 0  9994
2 26702  97.3858 197.9609 0006182 156.3347 203.8202 15.72423292387749
TIMED                   
1 26998U 01055B   26157.63783829  .00001524  00000+0  14194-3 0  9995
2 26998  74.0681 256.2585 0000520 356.4876   3.6304 14.95270460329245
CORIOLIS                
1 27640U 03001A   26158.26160080  .00000120  00000+0  77032-4 0  9993
2 27640  98.7127 165.2980 0012927 239.2827 120.7076 14.19942145212817
SORCE                   
1 27651U 03004A   26157.91161893  .00003313  00000+0  24784-3 0  9994
2 27651  39.9919 320.3020 0017996 334.2309  25.7588 15.03657674270355
MOST                    
1 27843U 03031D   26158.28533908  .00000082  00000+0  57857-4 0  9996
2 27843  98.7045 166.1494 0008702 282.7961  77.2243 14.21320517189304
SCISAT 1                
1 27858U 03036A   26157.82603693  .00000574  00000+0  77921-4 0  9995
2 27858  73.9288 191.9290 0008711 260.6324  99.3867 14.81437394229919
SWIFT                   
1 28485U 04047A   26157.62516102  .00061964  00000+0  53892-3 0  9991
2 28485  20.5528 266.3162 0002758 138.0120 222.0537 15.67271412185207
HINODE (SOLAR-B)        
1 29479U 06041A   26158.30621645  .00000877  00000+0  15911-3 0  9992
2 29479  98.0549 174.6043 0016489 323.5849  36.4234 14.68609714 53427
SHIJIAN-6 02A (SJ-6 02A)
1 29505U 06046A   26158.26259743  .00006705  00000+0  34442-3 0  9994
2 29505  97.6360 199.2554 0003620 148.6535 211.4914 15.16825139 70765
SHIJIAN-6 02B (SJ-6 02B)
1 29506U 06046B   26158.28254940  .00001721  00000+0  13804-3 0  9993
2 29506  97.7160 187.4026 0014626  89.1288 271.1612 15.01351991 69254
FGRST (GLAST)           
1 33053U 08029A   26158.01383395  .00004022  00000+0  14818-3 0  9999
2 33053  25.5828 275.1197 0007946 203.3303 156.6875 15.23896535994285
SDO                     
1 36395U 10005A   26157.34396931 -.00000062  00000+0  00000+0 0  9998
2 36395  34.6287  86.5080 0001398  50.1694 139.9279  1.00271136 59950
CRYOSAT 2               
1 36508U 10013A   26158.08806978  .00000129  00000+0  31378-4 0  9992
2 36508  92.0347 274.8474 0002242  85.8800 274.2664 14.51896229856618
X-SAT                   
1 37389U 11015C   26158.25635961  .00000271  00000+0  13284-3 0  9997
2 37389  98.3512 135.7535 0014585  17.2163 342.9509 14.25204012786264
GCOM-W1 (SHIZUKU)       
1 38337U 12025A   26158.06609299  .00000502  00000+0  12143-3 0  9997
2 38337  98.2020  98.7751 0001874  83.1120 287.3797 14.57115097747561
NUSTAR                  
1 38358U 12031A   26158.33337963  .00022506  00000+0  13348-2 0  9998
2 38358   6.0262 108.0320 0008456 313.2226 107.6795 15.08699875  1308
NEOSSAT                 
1 39089U 13009D   26158.24433364  .00000158  00000+0  69371-4 0  9996
2 39089  98.4176 338.5137 0009786 277.0304  82.9769 14.35822976695311
BRITE-AUSTRIA           
1 39091U 13009F   26158.24790477  .00000204  00000+0  84090-4 0  9997
2 39091  98.3993 337.9300 0008956 270.0657  89.9503 14.36538233695625
IRIS                    
1 39197U 13033A   26158.26569856  .00001270  00000+0  15147-3 0  9998
2 39197  97.9336 357.5739 0024301 354.9834   5.1134 14.85866069698902
HISAKI (SPRINT-A)       
1 39253U 13049A   26157.59666142  .00000136  00000+0  94357-4 0  9990
2 39253  29.7210 273.8556 0136916 291.0311  67.5666 13.55543546629985
CASSIOPE                
1 39265U 13055A   26157.99012198  .00046079 -50256-6  50894-3 0  9999
2 39265  80.9144  79.0942 0296188  96.6306 266.8728 15.24273456666116
STSAT-3                 
1 39422U 13066G   26158.25786587  .00004729  00000+0  35834-3 0  9993
2 39422  97.6216 128.3068 0010894  71.3190 288.9217 15.02699264682719
SWARM B                 
1 39451U 13067A   26158.24813594  .00003824  00000+0  13675-3 0  9998
2 39451  87.7442 345.3372 0003409  91.2356 268.9284 15.28490993681728
